NORAD_CAT_ID,OBJECT_NAME,OBJECT_TYPE,EPOCH,MEAN_MOTION,ECCENTRICITY,INCLINATION,RA_OF_ASC_NODE,ARG_OF_PERICENTER,MEAN_ANOMALY,BSTAR,MEAN_MOTION_DOT,MEAN_MOTION_DDOT,TLE_LINE0,TLE_LINE1,TLE_LINE2,SEMIMAJOR_AXIS,PERIOD,APOGEE,PERIGEE,DECAYED
56768.0,STARLINK-6198,PAYLOAD,2023-08-04 02:30:56,15.69928323,0.0003708,69.996,231.0352,263.0136,97.0638,9.3536e-06,9.12e-06,0.0,0 STARLINK-6198,1 56768U 23078B   23216.10482233  .00000912  00000-0  93536-5 0  9992,2 56768  69.9960 231.0352 0003708 263.0136  97.0638 15.69928323 10482,6737.239,91.724,361.602,356.606,0.0
56768.0,STARLINK-6198,PAYLOAD,2023-08-05 02:58:54,15.69974413,0.0003283,69.9972,228.1694,265.1315,94.9505,8.0819e-05,9.536e-05,0.0,0 STARLINK-6198,1 56768U 23078B   23217.12424630  .00009536  00000-0  80819-4 0  9992,2 56768  69.9972 228.1694 0003283 265.1315  94.9505 15.69974413 10649,6737.107,91.721,361.184,356.76,0.0
56768.0,STARLINK-6198,PAYLOAD,2023-08-05 10:37:40,15.69969019,0.0002822,69.9975,227.2735,258.1512,101.9367,6.5777e-05,7.718e-05,0.0,0 STARLINK-6198,1 56768U 23078B   23217.44282771  .00007718  00000-0  65777-4 0  9991,2 56768  69.9975 227.2735 0002822 258.1512 101.9367 15.69969019 10693,6737.123,91.722,360.889,357.086,0.0
56768.0,STARLINK-6198,PAYLOAD,2023-08-05 18:16:30,15.69909891,0.0003616,69.9974,226.3783,264.8539,95.2244,-1.4391e-05,-1.942e-05,0.0,0 STARLINK-6198,1 56768U 23078B   23217.76145843 -.00001942  00000-0 -14391-4 0  9995,2 56768  69.9974 226.3783 0003616 264.8539  95.2244 15.69909891 10747,6737.292,91.725,361.593,356.721,0.0
56768.0,STARLINK-6198,PAYLOAD,2023-08-06 01:55:15,15.69913294,0.0003088,69.9976,225.4827,263.9353,96.1491,-5.289e-06,-8.48e-06,0.0,0 STARLINK-6198,1 56768U 23078B   23218.08003801 -.00000848  00000-0 -52890-5 0  9999,2 56768  69.9976 225.4827 0003088 263.9353  96.1491 15.69913294 10796,6737.282,91.725,361.228,357.067,0.0
56768.0,STARLINK-6198,PAYLOAD,2023-08-06 11:05:48,15.69888328,0.0003191,69.9972,224.408,259.0693,101.0144,-4.4746e-05,-5.581e-05,0.0,0 STARLINK-6198,1 56768U 23078B   23218.46236505 -.00005581  00000-0 -44746-4 0  9999,2 56768  69.9972 224.4080 0003191 259.0693 101.0144 15.69888328 10857,6737.353,91.726,361.368,357.069,0.0
56768.0,STARLINK-6198,PAYLOAD,2023-08-07 00:51:33,15.69912712,0.0003261,69.9972,222.7957,263.8249,96.2575,-1.4988e-05,-2.014e-05,0.0,0 STARLINK-6198,1 56768U 23078B   23219.03580262 -.00002014  00000-0 -14988-4 0  9998,2 56768  69.9972 222.7957 0003261 263.8249  96.2575 15.69912712 10947,6737.284,91.725,361.346,356.952,0.0
56768.0,STARLINK-6198,PAYLOAD,2023-08-07 08:30:18,15.69910809,0.0003165,69.9993,221.8996,264.2913,95.7922,3.7463e-05,4.292e-05,0.0,0 STARLINK-6198,1 56768U 23078B   23219.35438118  .00004292  00000-0  37463-4 0  9996,2 56768  69.9993 221.8996 0003165 264.2913  95.7922 15.69910809 10999,6737.289,91.725,361.287,357.022,0.0
56768.0,STARLINK-6198,PAYLOAD,2023-08-07 11:33:48,15.69927174,0.0002969,69.9997,221.5416,263.4924,96.5934,0.00017979,0.00021462,0.0,0 STARLINK-6198,1 56768U 23078B   23219.48181467  .00021462  00000-0  17979-3 0  9999,2 56768  69.9997 221.5416 0002969 263.4924  96.5934 15.69927174 11010,6737.242,91.724,361.108,357.107,0.0
56768.0,STARLINK-6198,PAYLOAD,2023-08-08 10:30:05,15.69938319,0.0003147,69.9992,218.8541,262.7293,97.3545,7.8609e-05,9.255e-05,0.0,0 STARLINK-6198,1 56768U 23078B   23220.43756253  .00009255  00000-0  78609-4 0  9991,2 56768  69.9992 218.8541 0003147 262.7293  97.3545 15.69938319 11169,6737.21,91.723,361.196,356.955,0.0
56768.0,STARLINK-6198,PAYLOAD,2023-08-09 01:47:36,15.69924791,0.0002948,70.0002,217.0637,261.2634,98.8228,1.1052e-05,1.117e-05,0.0,0 STARLINK-6198,1 56768U 23078B   23221.07473217  .00001117  00000-0  11052-4 0  9996,2 56768  70.0002 217.0637 0002948 261.2634  98.8228 15.69924791 11266,6737.249,91.724,361.1,357.128,0.0
56768.0,STARLINK-6198,PAYLOAD,2023-08-10 09:54:24,15.69929536,0.0003002,69.9989,213.302,265.6669,94.4184,3.449e-05,3.937e-05,0.0,0 STARLINK-6198,1 56768U 23078B   23222.41278277  .00003937  00000-0  34490-4 0  9997,2 56768  69.9989 213.3020 0003002 265.6669  94.4184 15.69929536 11478,6737.236,91.724,361.123,357.078,0.0
56768.0,STARLINK-6198,PAYLOAD,2023-08-11 08:50:41,15.69926039,0.0003312,69.9969,210.6133,263.7861,96.2958,9.6307e-06,9.45e-06,0.0,0 STARLINK-6198,1 56768U 23078B   23223.36853273  .00000945  00000-0  96307-5 0  9999,2 56768  69.9969 210.6133 0003312 263.7861  96.2958 15.69926039 11629,6737.246,91.724,361.342,356.879,0.0
56768.0,STARLINK-6198,PAYLOAD,2023-08-11 16:29:27,15.69919126,0.0003192,69.9992,209.7184,266.8997,93.1833,-6.5402e-07,-2.91e-06,0.0,0 STARLINK-6198,1 56768U 23078B   23223.68712023 -.00000291  00000-0 -65402-6 0  9990,2 56768  69.9992 209.7184 0003192 266.8997  93.1833 15.69919126 11672,6737.265,91.724,361.281,356.98,0.0
56768.0,STARLINK-6198,PAYLOAD,2023-08-12 09:18:43,15.69932362,0.0002998,70.0001,207.7489,264.9905,95.0949,2.4588e-05,2.746e-05,0.0,0 STARLINK-6198,1 56768U 23078B   23224.38799789  .00002746  00000-0  24588-4 0  9995,2 56768  70.0001 207.7489 0002998 264.9905  95.0949 15.69932362 11781,6737.228,91.724,361.112,357.073,0.0
56768.0,STARLINK-6198,PAYLOAD,2023-08-13 08:15:00,15.69920125,0.0003196,69.9997,205.0603,265.9471,94.1359,8.4652e-06,8.05e-06,0.0,0 STARLINK-6198,1 56768U 23078B   23225.34375429  .00000805  00000-0  84652-5 0  9996,2 56768  69.9997 205.0603 0003196 265.9471  94.1359 15.69920125 11937,6737.263,91.724,361.281,356.974,0.0
56768.0,STARLINK-6198,PAYLOAD,2023-08-14 08:43:02,15.69925881,0.0003352,69.9999,202.194,265.8941,94.1872,5.841e-06,4.9e-06,0.0,0 STARLINK-6198,1 56768U 23078B   23226.36321956  .00000490  00000-0  58410-5 0  9998,2 56768  69.9999 202.1940 0003352 265.8941  94.1872 15.69925881 12098,6737.246,91.724,361.369,356.853,0.0
56768.0,STARLINK-6198,PAYLOAD,2023-08-15 07:39:19,15.69919503,0.0003207,69.9969,199.5069,269.387,90.6958,1.3213e-05,1.376e-05,0.0,0 STARLINK-6198,1 56768U 23078B   23227.31897417  .00001376  00000-0  13213-4 0  9999,2 56768  69.9969 199.5069 0003207 269.3870  90.6958 15.69919503 12242,6737.264,91.724,361.29,356.969,0.0
56768.0,STARLINK-6198,PAYLOAD,2023-08-16 09:39:06,15.69920181,0.0003077,69.9985,196.4617,271.7154,88.369,7.5215e-06,6.92e-06,0.0,0 STARLINK-6198,1 56768U 23078B   23228.40215964  .00000692  00000-0  75215-5 0  9992,2 56768  69.9985 196.4617 0003077 271.7154  88.3690 15.69920181 12412,6737.262,91.724,361.2,357.054,0.0
56768.0,STARLINK-6198,PAYLOAD,2023-08-17 07:03:37,15.69931614,0.0003476,69.9969,193.9533,271.1034,88.9763,1.7857e-05,1.935e-05,0.0,0 STARLINK-6198,1 56768U 23078B   23229.29418298  .00001935  00000-0  17857-4 0  9993,2 56768  69.9969 193.9533 0003476 271.1034  88.9763 15.69931614 12552,6737.23,91.724,361.437,356.753,0.0
56768.0,STARLINK-6198,PAYLOAD,2023-08-18 01:24:40,15.69917421,0.0003532,69.9977,191.8043,272.0256,88.0535,4.8148e-06,3.66e-06,0.0,0 STARLINK-6198,1 56768U 23078B   23230.05879664  .00000366  00000-0  48148-5 0  9992,2 56768  69.9977 191.8043 0003532 272.0256  88.0535 15.69917421 12674,6737.27,91.725,361.515,356.756,0.0
56768.0,STARLINK-6198,PAYLOAD,2023-08-18 15:10:25,15.69931148,0.0002897,69.999,190.1926,275.5681,84.5184,1.3888e-05,1.458e-05,0.0,0 STARLINK-6198,1 56768U 23078B   23230.63223945  .00001458  00000-0  13888-4 0  9996,2 56768  69.9990 190.1926 0002897 275.5681  84.5184 15.69931148 12767,6737.231,91.724,361.048,357.144,0.0
56768.0,STARLINK-6198,PAYLOAD,2023-08-19 00:20:57,15.69914391,0.0004516,69.9967,189.1175,286.1391,73.9307,-1.6429e-05,-2.188e-05,0.0,0 STARLINK-6198,1 56768U 23078B   23231.01455244 -.00002188  00000-0 -16429-4 0  9995,2 56768  69.9967 189.1175 0004516 286.1391  73.9307 15.69914391 12828,6737.279,91.725,362.186,356.101,0.0
56768.0,STARLINK-6198,PAYLOAD,2023-08-19 06:27:57,15.69922061,0.0003165,69.999,188.4003,269.476,90.6073,-6.805e-06,-1.031e-05,0.0,0 STARLINK-6198,1 56768U 23078B   23231.26941355 -.00001031  00000-0 -68050-5 0  9999,2 56768  69.9990 188.4003 0003165 269.4760  90.6073 15.69922061 12862,6737.257,91.724,361.254,356.99,0.0
56768.0,STARLINK-6198,PAYLOAD,2023-08-20 08:27:43,15.69929995,0.0003071,69.9999,185.3557,273.9609,86.1235,1.9043e-05,2.078e-05,0.0,0 STARLINK-6198,1 56768U 23078B   23232.35259247  .00002078  00000-0  19043-4 0  9999,2 56768  69.9999 185.3557 0003071 273.9609  86.1235 15.69929995 13032,6737.234,91.724,361.168,357.03,0.0
56768.0,STARLINK-6198,PAYLOAD,2023-08-21 02:48:45,15.69926696,0.0003021,70.0,183.2062,274.3203,85.7648,6.183e-06,5.31e-06,0.0,0 STARLINK-6198,1 56768U 23078B   23233.11719437  .00000531  00000-0  61830-5 0  9990,2 56768  70.0000 183.2062 0003021 274.3203  85.7648 15.69926696 13157,6737.244,91.724,361.144,357.073,0.0
56768.0,STARLINK-6198,PAYLOAD,2023-08-21 07:24:01,15.69917178,0.0002911,70.0001,182.6692,271.3595,88.7267,2.2546e-05,2.498e-05,0.0,0 STARLINK-6198,1 56768U 23078B   23233.30835011  .00002498  00000-0  22546-4 0  9992,2 56768  70.0001 182.6692 0002911 271.3595  88.7267 15.69917178 13186,6737.271,91.725,361.097,357.175,0.0
56768.0,STARLINK-6198,PAYLOAD,2023-08-22 00:13:16,15.69933231,0.000278,70.0008,180.6999,237.516,122.5768,1.5048e-05,1.598e-05,0.0,0 STARLINK-6198,1 56768U 23078B   23234.00922262  .00001598  00000-0  15048-4 0  9994,2 56768  70.0008 180.6999 0002780 237.5160 122.5768 15.69933231 13290,6737.225,91.724,360.963,357.217,0.0
56768.0,STARLINK-6198,PAYLOAD,2023-08-22 07:52:03,15.69918464,0.0003136,70.0001,179.8036,270.1167,89.9669,-6.4147e-06,-9.84e-06,0.0,0 STARLINK-6198,1 56768U 23078B   23234.32781732 -.00000984  00000-0 -64147-5 0  9999,2 56768  70.0001 179.8036 0003136 270.1167  89.9669 15.69918464 13344,6737.267,91.725,361.245,357.019,0.0
56768.0,STARLINK-6198,PAYLOAD,2023-08-22 23:09:34,15.69925619,0.0003616,69.9977,178.0112,271.4234,88.6548,1.3997e-05,1.471e-05,0.0,0 STARLINK-6198,1 56768U 23078B   23234.96498123  .00001471  00000-0  13997-4 0  9994,2 56768  69.9977 178.0112 0003616 271.4234  88.6548 15.69925619 13444,6737.247,91.724,361.548,356.676,0.0
